2026-006A               
1 67433U 26006A   26014.00119212  .00000164  00000+0 -18812-4 0  9991
2 67433 141.9999 189.5654 0168461 110.0347 251.8598 14.20680970    68
2026-006B               
1 67434U 26006B   26013.71733058  .00000541  00000+0  30805-4 0  9993
2 67434 142.0438 188.1412 0201725  82.0696 280.2897 14.62247694    24
